{
"type": "FeatureCollection",
"name": "area_estudio_gtfs",
"crs": { "type": "name", "properties": { "name": "urn:ogc:def:crs:OGC:1.3:CRS84" } },
"features": [
{ "type": "Feature", "properties": { }, "geometry": { "type": "Polygon", "coordinates": [ [ [ -66.357946313208217, -17.582014840300946 ], [ -66.358584487911486, -17.581444480465805 ], [ -66.359164883784743, -17.58081991786953 ], [ -66.359682518830652, -17.58014651413772 ], [ -66.360132949982372, -17.579430050142758 ], [ -66.36051231123551, -17.57867667636361 ], [ -66.360817346819857, -17.577892860073302 ], [ -66.361045439126372, -17.57708532980832 ], [ -66.397688436632663, -17.418407643886219 ], [ -66.397827250439235, -17.417656937125152 ], [ -66.397899605295933, -17.416897664737597 ], [ -66.397904986243859, -17.416135239125481 ], [ -66.395239366538348, -17.344009269460173 ], [ -66.39516495239549, -17.343151775958315 ], [ -66.395005899896503, -17.342304976793628 ], [ -66.394763654216547, -17.341476559814563 ], [ -66.394440415751887, -17.340674045872408 ], [ -66.394039120102988, -17.339904720546865 ], [ -66.393563411387106, -17.339175568011363 ], [ -66.39301760912339, -17.33849320763823 ], [ -66.392406668992891, -17.337863833918743 ], [ -66.391736137830065, -17.337293160242904 ], [ -66.391012103255463, -17.336786367048848 ], [ -66.30321946103426, -17.281252277399389 ], [ -66.30231546725625, -17.280747038601064 ], [ -66.301358650128009, -17.280341408878741 ], [ -66.300360854464159, -17.280040409299684 ], [ -66.295709744200167, -17.278906090906645 ], [ -66.295013737975381, -17.278763050126482 ], [ -66.294308462057231, -17.278671017056535 ], [ -66.294190967552311, -17.278660018373881 ], [ -66.293626008139213, -17.278623595184669 ], [ -66.292709452331607, -17.278591102996298 ], [ -66.291594675193394, -17.278615167192203 ], [ -66.290490708696097, -17.278765891512457 ], [ -66.290419012189162, -17.278779891313999 ], [ -66.289737088247421, -17.278938723283645 ], [ -66.289069396892288, -17.279145985779959 ], [ -65.980183128021011, -17.387103113382079 ], [ -65.979465582833271, -17.387385834811663 ], [ -65.978774746148957, -17.387724376948675 ], [ -65.937180389447846, -17.410222617063237 ], [ -65.936479942565256, -17.410641240517215 ], [ -65.935820413588885, -17.411117198269373 ], [ -65.935206880066119, -17.411646826130859 ], [ -65.934644065564228, -17.412226046727223 ], [ -65.849183010147186, -17.508226353855203 ], [ -65.848681788411469, -17.508840832617071 ], [ -65.848237744213137, -17.509494549252615 ], [ -65.847854196034248, -17.510182619110854 ], [ -65.832933751296935, -17.539972118228725 ], [ -65.832577237406781, -17.540782746385162 ], [ -65.832304677992013, -17.541622820710749 ], [ -65.832118663539291, -17.542484360302641 ], [ -65.83202096244348, -17.543359180235441 ], [ -65.832012504164695, -17.544238969308562 ], [ -65.832093370351558, -17.545115368997021 ], [ -65.832262794016643, -17.545980052856276 ], [ -65.832519166773864, -17.546824805626724 ], [ -65.832860054070736, -17.547641601286799 ], [ -65.833282218273055, -17.548422679312623 ], [ -65.833781649383937, -17.54916061841999 ], [ -65.834353603107203, -17.549848407087126 ], [ -65.834992645894715, -17.550479510188108 ], [ -65.83569270655083, -17.55104793110295 ], [ -65.83644713390423, -17.551548268713507 ], [ -65.837248759999639, -17.551975768742839 ], [ -65.838089968209218, -17.55232636894937 ], [ -65.838962765615832, -17.552596737745464 ], [ -65.839858858980051, -17.552784305872621 ], [ -65.840769733567996, -17.552887290831642 ], [ -66.349280810743323, -17.585730685046123 ], [ -66.35018610361729, -17.58574614146805 ], [ -66.351088758476436, -17.585678119692719 ], [ -66.351980426191346, -17.585527248721636 ], [ -66.35285285927074, -17.585294923874024 ], [ -66.35369798818077, -17.584983293881145 ], [ -66.354507996015855, -17.584595241008596 ], [ -66.355275390828893, -17.584134354390716 ], [ -66.35599307495049, -17.583604896824188 ], [ -66.357946313208217, -17.582014840300946 ] ] ] } }
]
}
