{
"type": "FeatureCollection",
"name": "area_estudio",
"crs": { "type": "name", "properties": { "name": "urn:ogc:def:crs:OGC:1.3:CRS84" } },
"features": [
{ "type": "Feature", "properties": { "nombre": "area_estudio_iteracion2", "regla": "hull orígenes válidos sin filtro de distancia (componente k=1) + 1 km" }, "geometry": { "type": "Polygon", "coordinates": [ [ [ -65.81753645321848, -17.584542794670377 ], [ -65.818095207087424, -17.585284274652135 ], [ -65.818729352627713, -17.585967697201614 ], [ -65.819432375615193, -17.586586040799634 ], [ -65.820197053947112, -17.587132952439564 ], [ -65.821015531830611, -17.587602812921293 ], [ -65.821879400493444, -17.587990794607649 ], [ -65.822779784587482, -17.588292911048512 ], [ -65.823707433396493, -17.588506057961894 ], [ -65.824652815910099, -17.58862804514952 ], [ -65.825606218785509, -17.588657619018431 ], [ -66.260339662060048, -17.580515953197565 ], [ -66.261206176081714, -17.580460337228121 ], [ -66.262063659341607, -17.580328368220659 ], [ -66.262904813840805, -17.580121169206532 ], [ -66.263722480586949, -17.579840503499003 ], [ -66.264509700550192, -17.579488759684068 ], [ -66.265259773914636, -17.579068931287171 ], [ -66.26596631711972, -17.578584591289065 ], [ -66.26662331720533, -17.578039861708085 ], [ -66.358105511098273, -17.494751818343488 ], [ -66.358903608187831, -17.49392803953512 ], [ -66.397108300717903, -17.449187940639348 ], [ -66.397659712542136, -17.448472815026172 ], [ -66.398135132409038, -17.447709079177319 ], [ -66.398529946456406, -17.446904146392786 ], [ -66.398840323402354, -17.446065829781592 ], [ -66.399063251703637, -17.445202266406405 ], [ -66.399196568749801, -17.444321838286228 ], [ -66.399238981810811, -17.443433091024872 ], [ -66.399138017917124, -17.415857790845603 ], [ -66.39909837254902, -17.415060784472885 ], [ -66.398985600234894, -17.414270248725824 ], [ -66.398800582324924, -17.41349235518846 ], [ -66.39854476414115, -17.412733176666784 ], [ -66.398220143665441, -17.41199863978197 ], [ -66.368020703898296, -17.3512566391381 ], [ -66.367593877809497, -17.35049418559484 ], [ -66.367092998695497, -17.349774482429634 ], [ -66.366522669736156, -17.349104142499282 ], [ -66.303913830403218, -17.282292407804849 ], [ -66.303252313142963, -17.281653390913455 ], [ -66.302527793603744, -17.281080904887983 ], [ -66.30174748862089, -17.280580651566051 ], [ -66.300919170434526, -17.280157613279769 ], [ -66.300051089284253, -17.279816003253412 ], [ -66.299151891252677, -17.279559223661053 ], [ -66.298230532175253, -17.279389831761083 ], [ -66.293251993222768, -17.278719841019651 ], [ -66.292221317796347, -17.278636333261286 ], [ -66.291187333267999, -17.278662129928009 ], [ -66.290162559600589, -17.278796918405597 ], [ -66.141236324505797, -17.30641705331093 ], [ -66.140199626257441, -17.306668382016252 ], [ -66.139199346394136, -17.307031175693002 ], [ -65.914094985144132, -17.402870183241987 ], [ -65.913345838541289, -17.403227576822221 ], [ -65.912632740409848, -17.403647479826091 ], [ -65.911961334727039, -17.404126568831892 ], [ -65.91133693560154, -17.404661051984142 ], [ -65.910764485223183, -17.405246698995821 ], [ -65.794672706817522, -17.534998272533105 ], [ -65.794127359400221, -17.535668567488738 ], [ -65.793650173981476, -17.536385118997977 ], [ -65.793245385717199, -17.53714156850851 ], [ -65.792916587473471, -17.537931203366583 ], [ -65.79266669792284, -17.538747016369573 ], [ -65.792497935617078, -17.539581767934052 ], [ -65.792028188165531, -17.542679620925131 ], [ -65.791938352697485, -17.543602949409348 ], [ -65.791947743930308, -17.544530247353332 ], [ -65.792056264251826, -17.54545172689307 ], [ -65.792262769707023, -17.546357661429088 ], [ -65.792565082008636, -17.547238488292159 ], [ -65.792960011467557, -17.548084909685222 ], [ -65.793443390603926, -17.548887990835819 ], [ -65.81753645321848, -17.584542794670377 ] ] ] } }
]
}
